{"type": "FeatureCollection", "features": [ {"type": "Feature", "properties": {"norad_id": 41335, "name": "SENTINEL-3A", "group": "resource", "lat": -62.949069309484216, "lon": -146.31652678656098, "alt_km": 810.3907039881042, "timestamp": "2025-12-11T22:43:46.928847+00:00", "meta": {"OBJECT_NAME": "SENTINEL-3A", "OBJECT_ID": "2016-011A", "EPOCH": "2025-12-11T08:07:25.470336", "MEAN_MOTION": 14.26745913, "ECCENTRICITY": 9.451e-05, "INCLINATION": 98.6209, "RA_OF_ASC_NODE": 50.3668, "ARG_OF_PERICENTER": 93.9278, "MEAN_ANOMALY": 266.2011, "EPHEMERIS_TYPE": 0, "CLASSIFICATION_TYPE": "U", "NORAD_CAT_ID": 41335, "ELEMENT_SET_NO": 999, "REV_AT_EPOCH": 51127, "BSTAR": 0.00012081977, "MEAN_MOTION_DOT": 2.49e-06, "MEAN_MOTION_DDOT": 0}, "tle": {"line1": "1 41335U 16011A   25345.33848924  .00000249  00000+0  12082-3 0  9995", "line2": "2 41335  98.6209  50.3668 0000945  93.9278 266.2011 14.26745913511272"}}, "geometry": {"type": "Point", "coordinates": [-146.31652678656098, -62.949069309484216]}}, {"type": "Feature", "properties": {"norad_id": 41556, "name": "ZIYUAN 3-2 (ZY 3-2)", "group": "resource", "lat": 81.50207955192937, "lon": -0.3711783218598448, "alt_km": 502.19266763787346, "timestamp": "2025-12-11T22:43:46.928858+00:00", "meta": {"OBJECT_NAME": "ZIYUAN 3-2 (ZY 3-2)", "OBJECT_ID": "2016-033A", "EPOCH": "2025-12-11T14:27:40.034880", "MEAN_MOTION": 15.2148672, "ECCENTRICITY": 0.00124232, "INCLINATION": 97.4041, "RA_OF_ASC_NODE": 59.7881, "ARG_OF_PERICENTER": 253.4459, "MEAN_ANOMALY": 106.5412, "EPHEMERIS_TYPE": 0, "CLASSIFICATION_TYPE": "U", "NORAD_CAT_ID": 41556, "ELEMENT_SET_NO": 999, "REV_AT_EPOCH": 52946, "BSTAR": 0.00082897767, "MEAN_MOTION_DOT": 0.00018645, "MEAN_MOTION_DDOT": 0}, "tle": {"line1": "1 41556U 16033A   25345.60254670  .00018645  00000+0  82898-3 0  9994", "line2": "2 41556  97.4041  59.7881 0012423 253.4459 106.5412 15.21486720529461"}}, "geometry": {"type": "Point", "coordinates": [-0.3711783218598448, 81.50207955192937]}}, {"type": "Feature", "properties": {"norad_id": 41599, "name": "CARTOSAT-2C", "group": "resource", "lat": 35.55231606626065, "lon": 37.82013521549028, "alt_km": 499.17235688845267, "timestamp": "2025-12-11T22:43:46.928868+00:00", "meta": {"OBJECT_NAME": "CARTOSAT-2C", "OBJECT_ID": "2016-040A", "EPOCH": "2025-12-11T14:40:08.163840", "MEAN_MOTION": 15.19284182, "ECCENTRICITY": 0.00109966, "INCLINATION": 97.4763, "RA_OF_ASC_NODE": 42.873, "ARG_OF_PERICENTER": 68.6003, "MEAN_ANOMALY": 291.6403, "EPHEMERIS_TYPE": 0, "CLASSIFICATION_TYPE": "U", "NORAD_CAT_ID": 41599, "ELEMENT_SET_NO": 999, "REV_AT_EPOCH": 52523, "BSTAR": 0.00056306155, "MEAN_MOTION_DOT": 0.00011839, "MEAN_MOTION_DDOT": 0}, "tle": {"line1": "1 41599U 16040A   25345.61120560  .00011839  00000+0  56306-3 0  9993", "line2": "2 41599  97.4763  42.8730 0010996  68.6003 291.6403 15.19284182525231"}}, "geometry": {"type": "Point", "coordinates": [37.82013521549028, 35.55231606626065]}}, {"type": "Feature", "properties": {"norad_id": 41601, "name": "SKYSAT-C1", "group": "resource", "lat": 52.77794048727753, "lon": 13.719897271998487, "alt_km": 461.86990530929506, "timestamp": "2025-12-11T22:43:46.928879+00:00", "meta": {"OBJECT_NAME": "SKYSAT-C1", "OBJECT_ID": "2016-040C", "EPOCH": "2025-12-11T08:23:40.530624", "MEAN_MOTION": 15.32550324, "ECCENTRICITY": 0.00025282, "INCLINATION": 96.983, "RA_OF_ASC_NODE": 22.4415, "ARG_OF_PERICENTER": 19.7612, "MEAN_ANOMALY": 340.3729, "EPHEMERIS_TYPE": 0, "CLASSIFICATION_TYPE": "U", "NORAD_CAT_ID": 41601, "ELEMENT_SET_NO": 999, "REV_AT_EPOCH": 52906, "BSTAR": 0.0005196648, "MEAN_MOTION_DOT": 0.00016279, "MEAN_MOTION_DDOT": 0}, "tle": {"line1": "1 41601U 16040C   25345.34977466  .00016279  00000+0  51966-3 0  9992", "line2": "2 41601  96.9830  22.4415 0002528  19.7612 340.3729 15.32550324529060"}}, "geometry": {"type": "Point", "coordinates": [13.719897271998487, 52.77794048727753]}}, {"type": "Feature", "properties": {"norad_id": 41603, "name": "LAPAN-A3", "group": "resource", "lat": -19.95549586643294, "lon": 160.92220916682294, "alt_km": 481.4230651999733, "timestamp": "2025-12-11T22:43:46.928890+00:00", "meta": {"OBJECT_NAME": "LAPAN-A3", "OBJECT_ID": "2016-040E", "EPOCH": "2025-12-11T15:35:10.694112", "MEAN_MOTION": 15.31535965, "ECCENTRICITY": 0.00097929, "INCLINATION": 97.1434, "RA_OF_ASC_NODE": 343.2453, "ARG_OF_PERICENTER": 338.157, "MEAN_ANOMALY": 21.9253, "EPHEMERIS_TYPE": 0, "CLASSIFICATION_TYPE": "U", "NORAD_CAT_ID": 41603, "ELEMENT_SET_NO": 999, "REV_AT_EPOCH": 52609, "BSTAR": 0.00018195736, "MEAN_MOTION_DOT": 5.474e-05, "MEAN_MOTION_DDOT": 0}, "tle": {"line1": "1 41603U 16040E   25345.64942933  .00005474  00000+0  18196-3 0  9991", "line2": "2 41603  97.1434 343.2453 0009792 338.1570  21.9253 15.31535965526099"}}, "geometry": {"type": "Point", "coordinates": [160.92220916682294, -19.95549586643294]}}, {"type": "Feature", "properties": {"norad_id": 41604, "name": "BIROS", "group": "resource", "lat": -37.50049914465013, "lon": -168.11766503935758, "alt_km": 309.694698582568, "timestamp": "2025-12-11T22:43:46.928900+00:00", "meta": {"OBJECT_NAME": "BIROS", "OBJECT_ID": "2016-040F", "EPOCH": "2025-12-11T02:10:11.450784", "MEAN_MOTION": 15.88965505, "ECCENTRICITY": 0.00032243, "INCLINATION": 97.0705, "RA_OF_ASC_NODE": 16.4571, "ARG_OF_PERICENTER": 155.3544, "MEAN_ANOMALY": 204.7884, "EPHEMERIS_TYPE": 0, "CLASSIFICATION_TYPE": "U", "NORAD_CAT_ID": 41604, "ELEMENT_SET_NO": 999, "REV_AT_EPOCH": 52846, "BSTAR": 0.00075595049, "MEAN_MOTION_DOT": 0.0021286, "MEAN_MOTION_DDOT": 1.8142315e-05}, "tle": {"line1": "1 41604U 16040F   25345.09041031  .00212860  18142-4  75595-3 0  9996", "line2": "2 41604  97.0705  16.4571 0003224 155.3544 204.7884 15.88965505528467"}}, "geometry": {"type": "Point", "coordinates": [-168.11766503935758, -37.50049914465013]}}, {"type": "Feature", "properties": {"norad_id": 41727, "name": "GAOFEN-3", "group": "resource", "lat": -51.13274515898715, "lon": 160.97553884771483, "alt_km": 759.140243152633, "timestamp": "2025-12-11T22:43:46.928911+00:00", "meta": {"OBJECT_NAME": "GAOFEN-3", "OBJECT_ID": "2016-049A", "EPOCH": "2025-12-11T14:59:51.932832", "MEAN_MOTION": 14.42213293, "ECCENTRICITY": 0.00014698, "INCLINATION": 98.4041, "RA_OF_ASC_NODE": 351.2279, "ARG_OF_PERICENTER": 62.2048, "MEAN_ANOMALY": 297.929, "EPHEMERIS_TYPE": 0, "CLASSIFICATION_TYPE": "U", "NORAD_CAT_ID": 41727, "ELEMENT_SET_NO": 999, "REV_AT_EPOCH": 49161, "BSTAR": 8.0876158e-05, "MEAN_MOTION_DOT": 2.23e-06, "MEAN_MOTION_DDOT": 0}, "tle": {"line1": "1 41727U 16049A   25345.62490663  .00000223  00000+0  80876-4 0  9995", "line2": "2 41727  98.4041 351.2279 0001469  62.2048 297.9290 14.42213293491610"}}, "geometry": {"type": "Point", "coordinates": [160.97553884771483, -51.13274515898715]}}, {"type": "Feature", "properties": {"norad_id": 41771, "name": "SKYSAT-C4", "group": "resource", "lat": -38.65457279899934, "lon": 16.76198840831792, "alt_km": 447.06834565281497, "timestamp": "2025-12-11T22:43:46.928922+00:00", "meta": {"OBJECT_NAME": "SKYSAT-C4", "OBJECT_ID": "2016-058B", "EPOCH": "2025-12-11T11:59:52.246464", "MEAN_MOTION": 15.42194983, "ECCENTRICITY": 0.00014121, "INCLINATION": 96.9377, "RA_OF_ASC_NODE": 10.7473, "ARG_OF_PERICENTER": 133.472, "MEAN_ANOMALY": 226.6646, "EPHEMERIS_TYPE": 0, "CLASSIFICATION_TYPE": "U", "NORAD_CAT_ID": 41771, "ELEMENT_SET_NO": 999, "REV_AT_EPOCH": 51648, "BSTAR": 0.00059624883, "MEAN_MOTION_DOT": 0.00025551, "MEAN_MOTION_DDOT": 0}, "tle": {"line1": "1 41771U 16058B   25345.49991026  .00025551  00000+0  59625-3 0  9996", "line2": "2 41771  96.9377  10.7473 0001412 133.4720 226.6646 15.42194983516485"}}, "geometry": {"type": "Point", "coordinates": [16.76198840831792, -38.65457279899934]}}, {"type": "Feature", "properties": {"norad_id": 41772, "name": "SKYSAT-C5", "group": "resource", "lat": -74.66167217311997, "lon": -177.19899737542283, "alt_km": 468.11968428961154, "timestamp": "2025-12-11T22:43:46.928931+00:00", "meta": {"OBJECT_NAME": "SKYSAT-C5", "OBJECT_ID": "2016-058C", "EPOCH": "2025-12-11T01:16:55.377408", "MEAN_MOTION": 15.35316112, "ECCENTRICITY": 0.00024634, "INCLINATION": 97.0761, "RA_OF_ASC_NODE": 28.8717, "ARG_OF_PERICENTER": 138.4277, "MEAN_ANOMALY": 221.7155, "EPHEMERIS_TYPE": 0, "CLASSIFICATION_TYPE": "U", "NORAD_CAT_ID": 41772, "ELEMENT_SET_NO": 999, "REV_AT_EPOCH": 51490, "BSTAR": 0.0004403824, "MEAN_MOTION_DOT": 0.00015041, "MEAN_MOTION_DDOT": 0}, "tle": {"line1": "1 41772U 16058C   25345.05341872  .00015041  00000+0  44038-3 0  9992", "line2": "2 41772  97.0761  28.8717 0002463 138.4277 221.7155 15.35316112514903"}}, "geometry": {"type": "Point", "coordinates": [-177.19899737542283, -74.66167217311997]}}, {"type": "Feature", "properties": {"norad_id": 41773, "name": "SKYSAT-C2", "group": "resource", "lat": -77.77964491641204, "lon": 155.73332832818903, "alt_km": 463.777468662568, "timestamp": "2025-12-11T22:43:46.928941+00:00", "meta": {"OBJECT_NAME": "SKYSAT-C2", "OBJECT_ID": "2016-058D", "EPOCH": "2025-12-11T12:13:42.560832", "MEAN_MOTION": 15.37227477, "ECCENTRICITY": 0.00043738, "INCLINATION": 97.0368, "RA_OF_ASC_NODE": 10.0882, "ARG_OF_PERICENTER": 37.6519, "MEAN_ANOMALY": 322.5032, "EPHEMERIS_TYPE": 0, "CLASSIFICATION_TYPE": "U", "NORAD_CAT_ID": 41773, "ELEMENT_SET_NO": 999, "REV_AT_EPOCH": 51617, "BSTAR": 0.00055910138, "MEAN_MOTION_DOT": 0.00020343, "MEAN_MOTION_DDOT": 0}, "tle": {"line1": "1 41773U 16058D   25345.50952038  .00020343  00000+0  55910-3 0  9997", "line2": "2 41773  97.0368  10.0882 0004373  37.6519 322.5032 15.37227477516176"}}, "geometry": {"type": "Point", "coordinates": [155.73332832818903, -77.77964491641204]}}]}